{"type": "FeatureCollection", "features": [ {"type": "Feature", "properties": {"norad_id": 66623, "name": "STARLINK-35920", "group": "last-30-days", "lat": -9.463212447191243, "lon": 38.91380193124315, "alt_km": 354.5974185538116, "timestamp": "2025-12-07T16:44:02.691087+00:00", "meta": {"OBJECT_NAME": "STARLINK-35920", "OBJECT_ID": "2025-271G", "EPOCH": "2025-12-06T22:00:01.999584", "MEAN_MOTION": 15.74671208, "ECCENTRICITY": 0.00010981, "INCLINATION": 53.1578, "RA_OF_ASC_NODE": 215.6044, "ARG_OF_PERICENTER": 115.8393, "MEAN_ANOMALY": 332.0456, "EPHEMERIS_TYPE": 0, "CLASSIFICATION_TYPE": "U", "NORAD_CAT_ID": 66623, "ELEMENT_SET_NO": 999, "REV_AT_EPOCH": 330, "BSTAR": -0.011324732, "MEAN_MOTION_DOT": -0.01490689, "MEAN_MOTION_DDOT": 0}, "tle": {"line1": "1 66623U 25271G   25340.91668981 -.01490689  00000+0 -11325-1 0  9993", "line2": "2 66623  53.1578 215.6044 0001098 115.8393 332.0456 15.74671208  3304"}}, "geometry": {"type": "Point", "coordinates": [38.91380193124315, -9.463212447191243]}}, {"type": "Feature", "properties": {"norad_id": 66624, "name": "STARLINK-35927", "group": "last-30-days", "lat": -7.963199865623428, "lon": 37.7589959240947, "alt_km": 354.8292930913767, "timestamp": "2025-12-07T16:44:02.691099+00:00", "meta": {"OBJECT_NAME": "STARLINK-35927", "OBJECT_ID": "2025-271H", "EPOCH": "2025-12-06T22:00:01.999584", "MEAN_MOTION": 15.74645285, "ECCENTRICITY": 7.857e-05, "INCLINATION": 53.1581, "RA_OF_ASC_NODE": 215.6086, "ARG_OF_PERICENTER": 63.4032, "MEAN_ANOMALY": 22.5681, "EPHEMERIS_TYPE": 0, "CLASSIFICATION_TYPE": "U", "NORAD_CAT_ID": 66624, "ELEMENT_SET_NO": 999, "REV_AT_EPOCH": 330, "BSTAR": -0.010991253, "MEAN_MOTION_DOT": -0.01450346, "MEAN_MOTION_DDOT": 0}, "tle": {"line1": "1 66624U 25271H   25340.91668981 -.01450346  00000+0 -10991-1 0  9998", "line2": "2 66624  53.1581 215.6086 0000785  63.4032  22.5681 15.74645285  3302"}}, "geometry": {"type": "Point", "coordinates": [37.7589959240947, -7.963199865623428]}}, {"type": "Feature", "properties": {"norad_id": 66625, "name": "STARLINK-35929", "group": "last-30-days", "lat": -11.012845153429167, "lon": 40.12078633838636, "alt_km": 354.92823647640944, "timestamp": "2025-12-07T16:44:02.691111+00:00", "meta": {"OBJECT_NAME": "STARLINK-35929", "OBJECT_ID": "2025-271J", "EPOCH": "2025-12-06T22:00:01.999584", "MEAN_MOTION": 15.74623107, "ECCENTRICITY": 0.00012423, "INCLINATION": 53.1581, "RA_OF_ASC_NODE": 215.6004, "ARG_OF_PERICENTER": 84.7473, "MEAN_ANOMALY": 5.093, "EPHEMERIS_TYPE": 0, "CLASSIFICATION_TYPE": "U", "NORAD_CAT_ID": 66625, "ELEMENT_SET_NO": 999, "REV_AT_EPOCH": 330, "BSTAR": -0.010907561, "MEAN_MOTION_DOT": -0.01439623, "MEAN_MOTION_DDOT": 0}, "tle": {"line1": "1 66625U 25271J   25340.91668981 -.01439623  00000+0 -10908-1 0  9992", "line2": "2 66625  53.1581 215.6004 0001242  84.7473   5.0930 15.74623107  3309"}}, "geometry": {"type": "Point", "coordinates": [40.12078633838636, -11.012845153429167]}}, {"type": "Feature", "properties": {"norad_id": 66626, "name": "STARLINK-35902", "group": "last-30-days", "lat": -12.536678430062217, "lon": 41.32349098742411, "alt_km": 354.97086968559233, "timestamp": "2025-12-07T16:44:02.691122+00:00", "meta": {"OBJECT_NAME": "STARLINK-35902", "OBJECT_ID": "2025-271K", "EPOCH": "2025-12-06T22:00:01.999584", "MEAN_MOTION": 15.74546719, "ECCENTRICITY": 9.369e-05, "INCLINATION": 53.1578, "RA_OF_ASC_NODE": 215.5958, "ARG_OF_PERICENTER": 96.8292, "MEAN_ANOMALY": 355.0003, "EPHEMERIS_TYPE": 0, "CLASSIFICATION_TYPE": "U", "NORAD_CAT_ID": 66626, "ELEMENT_SET_NO": 999, "REV_AT_EPOCH": 330, "BSTAR": -0.010425565, "MEAN_MOTION_DOT": -0.01378846, "MEAN_MOTION_DDOT": 0}, "tle": {"line1": "1 66626U 25271K   25340.91668981 -.01378846  00000+0 -10426-1 0  9997", "line2": "2 66626  53.1578 215.5958 0000936  96.8292 355.0003 15.74546719  3307"}}, "geometry": {"type": "Point", "coordinates": [41.32349098742411, -12.536678430062217]}}, {"type": "Feature", "properties": {"norad_id": 66627, "name": "STARLINK-35904", "group": "last-30-days", "lat": -13.96493964300563, "lon": 42.467981431722244, "alt_km": 355.7322330033794, "timestamp": "2025-12-07T16:44:02.691132+00:00", "meta": {"OBJECT_NAME": "STARLINK-35904", "OBJECT_ID": "2025-271L", "EPOCH": "2025-12-06T22:00:01.999584", "MEAN_MOTION": 15.74570013, "ECCENTRICITY": 7.752e-05, "INCLINATION": 53.1576, "RA_OF_ASC_NODE": 215.5915, "ARG_OF_PERICENTER": 68.4935, "MEAN_ANOMALY": 25.2927, "EPHEMERIS_TYPE": 0, "CLASSIFICATION_TYPE": "U", "NORAD_CAT_ID": 66627, "ELEMENT_SET_NO": 999, "REV_AT_EPOCH": 314, "BSTAR": -0.0110799, "MEAN_MOTION_DOT": -0.01456402, "MEAN_MOTION_DDOT": 0}, "tle": {"line1": "1 66627U 25271L   25340.91668981 -.01456402  00000+0 -11080-1 0  9990", "line2": "2 66627  53.1576 215.5915 0000775  68.4935  25.2927 15.74570013  3146"}}, "geometry": {"type": "Point", "coordinates": [42.467981431722244, -13.96493964300563]}}, {"type": "Feature", "properties": {"norad_id": 66628, "name": "STARLINK-35862", "group": "last-30-days", "lat": -15.538957301540036, "lon": 43.751297705150535, "alt_km": 355.69432837690783, "timestamp": "2025-12-07T16:44:02.691142+00:00", "meta": {"OBJECT_NAME": "STARLINK-35862", "OBJECT_ID": "2025-271M", "EPOCH": "2025-12-06T22:00:01.999584", "MEAN_MOTION": 15.74585876, "ECCENTRICITY": 8.866e-05, "INCLINATION": 53.1576, "RA_OF_ASC_NODE": 215.5877, "ARG_OF_PERICENTER": 60.8296, "MEAN_ANOMALY": 34.7864, "EPHEMERIS_TYPE": 0, "CLASSIFICATION_TYPE": "U", "NORAD_CAT_ID": 66628, "ELEMENT_SET_NO": 999, "REV_AT_EPOCH": 330, "BSTAR": -0.01063443, "MEAN_MOTION_DOT": -0.01405449, "MEAN_MOTION_DDOT": 0}, "tle": {"line1": "1 66628U 25271M   25340.91668981 -.01405449  00000+0 -10634-1 0  9990", "line2": "2 66628  53.1576 215.5877 0000886  60.8296  34.7864 15.74585876  3309"}}, "geometry": {"type": "Point", "coordinates": [43.751297705150535, -15.538957301540036]}}, {"type": "Feature", "properties": {"norad_id": 66629, "name": "STARLINK-35956", "group": "last-30-days", "lat": -17.059565648152418, "lon": 45.01647641053878, "alt_km": 355.46184176839324, "timestamp": "2025-12-07T16:44:02.691152+00:00", "meta": {"OBJECT_NAME": "STARLINK-35956", "OBJECT_ID": "2025-271N", "EPOCH": "2025-12-06T22:00:01.999584", "MEAN_MOTION": 15.74570635, "ECCENTRICITY": 0.00011073, "INCLINATION": 53.1576, "RA_OF_ASC_NODE": 215.5843, "ARG_OF_PERICENTER": 85.2321, "MEAN_ANOMALY": 12.3054, "EPHEMERIS_TYPE": 0, "CLASSIFICATION_TYPE": "U", "NORAD_CAT_ID": 66629, "ELEMENT_SET_NO": 999, "REV_AT_EPOCH": 330, "BSTAR": -0.010432526, "MEAN_MOTION_DOT": -0.01381042, "MEAN_MOTION_DDOT": 0}, "tle": {"line1": "1 66629U 25271N   25340.91668981 -.01381042  00000+0 -10433-1 0  9990", "line2": "2 66629  53.1576 215.5843 0001107  85.2321  12.3054 15.74570635  3300"}}, "geometry": {"type": "Point", "coordinates": [45.01647641053878, -17.059565648152418]}}, {"type": "Feature", "properties": {"norad_id": 66630, "name": "STARLINK-35949", "group": "last-30-days", "lat": -18.539444605952145, "lon": 46.27301469636626, "alt_km": 355.66505665913246, "timestamp": "2025-12-07T16:44:02.691167+00:00", "meta": {"OBJECT_NAME": "STARLINK-35949", "OBJECT_ID": "2025-271P", "EPOCH": "2025-12-06T22:00:01.999584", "MEAN_MOTION": 15.74573771, "ECCENTRICITY": 0.00010845, "INCLINATION": 53.1578, "RA_OF_ASC_NODE": 215.5797, "ARG_OF_PERICENTER": 82.3611, "MEAN_ANOMALY": 17.0947, "EPHEMERIS_TYPE": 0, "CLASSIFICATION_TYPE": "U", "NORAD_CAT_ID": 66630, "ELEMENT_SET_NO": 999, "REV_AT_EPOCH": 330, "BSTAR": -0.010496284, "MEAN_MOTION_DOT": -0.01388693, "MEAN_MOTION_DDOT": 0}, "tle": {"line1": "1 66630U 25271P   25340.91668981 -.01388693  00000+0 -10496-1 0  9990", "line2": "2 66630  53.1578 215.5797 0001084  82.3611  17.0947 15.74573771  3303"}}, "geometry": {"type": "Point", "coordinates": [46.27301469636626, -18.539444605952145]}}, {"type": "Feature", "properties": {"norad_id": 66631, "name": "STARLINK-35965", "group": "last-30-days", "lat": -20.0072483945409, "lon": 47.54945340651562, "alt_km": 356.0725910278925, "timestamp": "2025-12-07T16:44:02.691182+00:00", "meta": {"OBJECT_NAME": "STARLINK-35965", "OBJECT_ID": "2025-271Q", "EPOCH": "2025-12-06T22:00:01.999584", "MEAN_MOTION": 15.74591372, "ECCENTRICITY": 0.00011853, "INCLINATION": 53.1578, "RA_OF_ASC_NODE": 215.5761, "ARG_OF_PERICENTER": 61.9451, "MEAN_ANOMALY": 39.4151, "EPHEMERIS_TYPE": 0, "CLASSIFICATION_TYPE": "U", "NORAD_CAT_ID": 66631, "ELEMENT_SET_NO": 999, "REV_AT_EPOCH": 330, "BSTAR": -0.010653469, "MEAN_MOTION_DOT": -0.01408146, "MEAN_MOTION_DDOT": 0}, "tle": {"line1": "1 66631U 25271Q   25340.91668981 -.01408146  00000+0 -10653-1 0  9992", "line2": "2 66631  53.1578 215.5761 0001185  61.9451  39.4151 15.74591372  3304"}}, "geometry": {"type": "Point", "coordinates": [47.54945340651562, -20.0072483945409]}}, {"type": "Feature", "properties": {"norad_id": 66632, "name": "STARLINK-35973", "group": "last-30-days", "lat": -21.478433802587226, "lon": 48.860849833709, "alt_km": 356.20859181093147, "timestamp": "2025-12-07T16:44:02.691192+00:00", "meta": {"OBJECT_NAME": "STARLINK-35973", "OBJECT_ID": "2025-271R", "EPOCH": "2025-12-06T22:00:01.999584", "MEAN_MOTION": 15.74586045, "ECCENTRICITY": 8.902e-05, "INCLINATION": 53.1576, "RA_OF_ASC_NODE": 215.5718, "ARG_OF_PERICENTER": 65.5441, "MEAN_ANOMALY": 37.7306, "EPHEMERIS_TYPE": 0, "CLASSIFICATION_TYPE": "U", "NORAD_CAT_ID": 66632, "ELEMENT_SET_NO": 999, "REV_AT_EPOCH": 324, "BSTAR": -0.010573184, "MEAN_MOTION_DOT": -0.01398281, "MEAN_MOTION_DDOT": 0}, "tle": {"line1": "1 66632U 25271R   25340.91668981 -.01398281  00000+0 -10573-1 0  9992", "line2": "2 66632  53.1576 215.5718 0000890  65.5441  37.7306 15.74586045  3243"}}, "geometry": {"type": "Point", "coordinates": [48.860849833709, -21.478433802587226]}}]}